SL-3 R/B                
1 13403U 82079B   26050.09359859  .00005007  00000+0  20103-3 0  9998
2 13403  81.1450 215.0292 0024324 228.1270 131.7888 15.24498110374869
SL-14 R/B               
1 13553U 82092B   26049.80794806  .00000488  00000+0  51994-4 0  9992
2 13553  82.5710 159.0551 0020456   8.3001 108.0218 14.86645118326125
SL-3 R/B                
1 13819U 83010B   26049.99083944  .00014252  00000+0  29309-3 0  9990
2 13819  81.1037  25.1578 0018591 109.7918 250.5333 15.45642254355058
SL-3 R/B                
1 14208U 83075B   26050.14648104  .00010347  00000+0  27794-3 0  9995
2 14208  97.6131  54.0302 0019927 299.0413  60.8834 15.37925090327309
COSMOS 1536             
1 14699U 84013A   26050.20034976  .00004777  00000+0  19802-3 0  9996
2 14699  82.5462 126.2245 0013890 353.5622   6.5434 15.23560469269805
SL-14 R/B               
1 14820U 84027B   26050.04056032  .00000379  00000+0  40476-4 0  9992
2 14820  82.5385 262.5081 0018927  39.0526 321.2052 14.85956477244869
SL-8 R/B                
1 15483U 85006B   26050.17049155  .00000168  00000+0  64346-4 0  9996
2 15483  74.0454 295.2269 0019167 216.9351 311.6076 14.37773526151368
SL-12 R/B(2)            
1 15772U 85042D   26050.18546651  .00000132  00000+0  80735-4 0  9992
2 15772  71.1080 126.8242 0034269 158.1174 223.3663 14.21977122111764
SL-14 R/B               
1 15945U 85069B   26050.03098251  .00000487  00000+0  52396-4 0  9990
2 15945  82.5250  42.4801 0017211 253.0478 106.8853 14.86409664170061
SL-16 R/B               
1 16182U 85097B   26049.78878189 -.00000010  00000+0  18853-4 0  9994
2 16182  71.0027 180.3424 0009712 281.3309 184.8908 14.16594339 84559
SL-14 R/B               
1 16496U 86006B   26050.08023992  .00000556  00000+0  56496-4 0  9991
2 16496  82.5248 277.2550 0076007 335.5041  24.2571 14.86789341146447
COSMOS 1743             
1 16719U 86034A   26050.07819983  .00029023  00000+0  39865-3 0  9992
2 16719  82.5304  93.3434 0004092  21.5144 338.6282 15.57149558177351
